start=new Date('2021-12-18T00:00:00.000Z').valueOf();
sats=[{"MEAN_ANOMALY":"311.2075","CENTER_NAME":"EARTH","REV_AT_EPOCH":"245","NORAD_CAT_ID":"49760","MEAN_ELEMENT_THEORY":"SGP4","PERIAPSIS":"443.712","RA_OF_ASC_NODE":"246.9561","OBJECT_ID":"2021-115AN","ARG_OF_PERICENTER":"48.9062","RCS_SIZE":"MEDIUM","CLASSIFICATION_TYPE":"U","OBJECT_NAME":"STARLINK-3199","SEMIMAJOR_AXIS":"6822.886","TLE_LINE2":"2 49760  53.2149 246.9561 0001522  48.9062 311.2075 15.40460646  2450","FILE":"3243045","OBJECT_TYPE":"PAYLOAD","GP_ID":"191905313","ECCENTRICITY":"0.00015220","REF_FRAME":"TEME","DECAY_DATE":null,"ELEMENT_SET_NO":"999","SITE":"AFETR","MEAN_MOTION_DOT":"-0.00001884","MEAN_MOTION_DDOT":"0.0000000000000","PERIOD":"93.479","BSTAR":"-0.00003602800000","EPHEMERIS_TYPE":"0","MEAN_MOTION":"15.40460646","LAUNCH_DATE":"2021-12-02","TIME_SYSTEM":"UTC","APOAPSIS":"445.789","COUNTRY_CODE":"US","INCLINATION":"53.2149","TLE_LINE1":"1 49760U 21115AN  21351.87680884 -.00001884  00000-0 -36028-4 0  9993","EPOCH":"2021-12-17T21:02:36.283776"},{"MEAN_MOTION_DDOT":"0.0000000000000","MEAN_MOTION_DOT":"-0.00007041","EPHEMERIS_TYPE":"0","BSTAR":"-0.00016163000000","PERIOD":"93.479","REF_FRAME":"TEME","ECCENTRICITY":"0.00015290","SITE":"AFETR","ELEMENT_SET_NO":"999","DECAY_DATE":null,"APOAPSIS":"445.825","INCLINATION":"53.2147","EPOCH":"2021-12-17T21:01:46.676352","TLE_LINE1":"1 49761U 21115AP  21351.87623468 -.00007041  00000-0 -16163-3 0  9997","COUNTRY_CODE":"US","MEAN_MOTION":"15.40450111","TIME_SYSTEM":"UTC","LAUNCH_DATE":"2021-12-02","PERIAPSIS":"443.739","MEAN_ELEMENT_THEORY":"SGP4","MEAN_ANOMALY":"301.1695","REV_AT_EPOCH":"245","NORAD_CAT_ID":"49761","CENTER_NAME":"EARTH","TLE_LINE2":"2 49761  53.2147 246.9534 0001529  58.9461 301.1695 15.40450111  2452","FILE":"3243045","SEMIMAJOR_AXIS":"6822.917","OBJECT_NAME":"STARLINK-3203","GP_ID":"191904302","OBJECT_TYPE":"PAYLOAD","RA_OF_ASC_NODE":"246.9534","CLASSIFICATION_TYPE":"U","OBJECT_ID":"2021-115AP","ARG_OF_PERICENTER":"58.9461","RCS_SIZE":"MEDIUM"},{"CENTER_NAME":"EARTH","NORAD_CAT_ID":"49762","REV_AT_EPOCH":"356","MEAN_ANOMALY":"164.1993","MEAN_ELEMENT_THEORY":"SGP4","PERIAPSIS":"443.809","ARG_OF_PERICENTER":"55.0721","RCS_SIZE":"MEDIUM","OBJECT_ID":"2021-115AQ","CLASSIFICATION_TYPE":"U","RA_OF_ASC_NODE":"246.7734","OBJECT_TYPE":"PAYLOAD","GP_ID":"191880296","OBJECT_NAME":"STARLINK-3195","TLE_LINE2":"2 49762  53.2139 246.7734 0001434  55.0721 164.1993 15.40448313  3568","FILE":"3242986","SEMIMAJOR_AXIS":"6822.922","DECAY_DATE":null,"ELEMENT_SET_NO":"999","SITE":"AFETR","ECCENTRICITY":"0.00014340","REF_FRAME":"TEME","PERIOD":"93.479","BSTAR":"-0.00007633100000","EPHEMERIS_TYPE":"0","MEAN_MOTION_DOT":"-0.00003539","MEAN_MOTION_DDOT":"0.0000000000000","LAUNCH_DATE":"2021-12-02","TIME_SYSTEM":"UTC","MEAN_MOTION":"15.40448313","COUNTRY_CODE":"US","TLE_LINE1":"1 49762U 21115AQ  21351.91667824 -.00003539  00000-0 -76331-4 0  9999","EPOCH":"2021-12-17T22:00:00.999936","INCLINATION":"53.2139","APOAPSIS":"445.766"},{"RA_OF_ASC_NODE":"246.9559","CLASSIFICATION_TYPE":"U","ARG_OF_PERICENTER":"61.9444","RCS_SIZE":"MEDIUM","OBJECT_ID":"2021-115AR","TLE_LINE2":"2 49763  53.2146 246.9559 0001594  61.9444 298.1723 15.40458173  2450","SEMIMAJOR_AXIS":"6822.893","FILE":"3243045","OBJECT_NAME":"STARLINK-3198","GP_ID":"191904707","OBJECT_TYPE":"PAYLOAD","MEAN_ANOMALY":"298.1723","NORAD_CAT_ID":"49763","REV_AT_EPOCH":"245","CENTER_NAME":"EARTH","PERIAPSIS":"443.671","MEAN_ELEMENT_THEORY":"SGP4","MEAN_MOTION":"15.40458173","TIME_SYSTEM":"UTC","LAUNCH_DATE":"2021-12-02","APOAPSIS":"445.846","EPOCH":"2021-12-17T21:02:19.209408","TLE_LINE1":"1 49763U 21115AR  21351.87661122 -.00000550  00000-0 -35777-5 0  9990","INCLINATION":"53.2146","COUNTRY_CODE":"US","REF_FRAME":"TEME","ECCENTRICITY":"0.00015940","SITE":"AFETR","DECAY_DATE":null,"ELEMENT_SET_NO":"999","MEAN_MOTION_DDOT":"0.0000000000000","MEAN_MOTION_DOT":"-0.00000550","EPHEMERIS_TYPE":"0","BSTAR":"-0.00000357770000","PERIOD":"93.479"},{"MEAN_MOTION":"15.40460090","LAUNCH_DATE":"2021-12-02","TIME_SYSTEM":"UTC","APOAPSIS":"445.764","COUNTRY_CODE":"US","INCLINATION":"53.2144","EPOCH":"2021-12-17T21:03:40.664736","TLE_LINE1":"1 49764U 21115AS  21351.87755399 -.00002209  00000-0 -43919-4 0  9990","ECCENTRICITY":"0.00014830","REF_FRAME":"TEME","DECAY_DATE":null,"ELEMENT_SET_NO":"999","SITE":"AFETR","MEAN_MOTION_DOT":"-0.00002209","MEAN_MOTION_DDOT":"0.0000000000000","PERIOD":"93.479","BSTAR":"-0.00004391900000","EPHEMERIS_TYPE":"0","RA_OF_ASC_NODE":"246.9603","OBJECT_ID":"2021-115AS","RCS_SIZE":"MEDIUM","ARG_OF_PERICENTER":"55.7706","CLASSIFICATION_TYPE":"U","OBJECT_NAME":"STARLINK-3206","TLE_LINE2":"2 49764  53.2144 246.9603 0001483  55.7706 304.3440 15.40460090  3579","FILE":"3243045","SEMIMAJOR_AXIS":"6822.887","OBJECT_TYPE":"PAYLOAD","GP_ID":"191904910","MEAN_ANOMALY":"304.3440","CENTER_NAME":"EARTH","REV_AT_EPOCH":"357","NORAD_CAT_ID":"49764","MEAN_ELEMENT_THEORY":"SGP4","PERIAPSIS":"443.741"},{"SEMIMAJOR_AXIS":"6822.847","TLE_LINE2":"2 49765  53.2142 246.9581 0001319  63.2317 296.8824 15.40473699  2459","FILE":"3243045","OBJECT_NAME":"STARLINK-3227","GP_ID":"191903897","OBJECT_TYPE":"PAYLOAD","RA_OF_ASC_NODE":"246.9581","CLASSIFICATION_TYPE":"U","OBJECT_ID":"2021-115AT","ARG_OF_PERICENTER":"63.2317","RCS_SIZE":"MEDIUM","PERIAPSIS":"443.812","MEAN_ELEMENT_THEORY":"SGP4","MEAN_ANOMALY":"296.8824","REV_AT_EPOCH":"245","NORAD_CAT_ID":"49765","CENTER_NAME":"EARTH","APOAPSIS":"445.612","INCLINATION":"53.2142","EPOCH":"2021-12-17T21:02:52.094112","TLE_LINE1":"1 49765U 21115AT  21351.87699183  .00015863  00000-0  39458-3 0  9999","COUNTRY_CODE":"US","MEAN_MOTION":"15.40473699","TIME_SYSTEM":"UTC","LAUNCH_DATE":"2021-12-02","MEAN_MOTION_DDOT":"0.0000000000000","MEAN_MOTION_DOT":"0.00015863","BSTAR":"0.00039458000000","EPHEMERIS_TYPE":"0","PERIOD":"93.478","REF_FRAME":"TEME","ECCENTRICITY":"0.00013190","SITE":"AFETR","DECAY_DATE":null,"ELEMENT_SET_NO":"999"},{"OBJECT_ID":"2021-115AU","ARG_OF_PERICENTER":"58.2371","RCS_SIZE":"MEDIUM","CLASSIFICATION_TYPE":"U","RA_OF_ASC_NODE":"246.9616","OBJECT_TYPE":"PAYLOAD","GP_ID":"191904100","OBJECT_NAME":"STARLINK-3190","SEMIMAJOR_AXIS":"6822.878","TLE_LINE2":"2 49766  53.2140 246.9616 0001775  58.2371 301.8807 15.40463337  2453","FILE":"3243045","CENTER_NAME":"EARTH","REV_AT_EPOCH":"245","NORAD_CAT_ID":"49766","MEAN_ANOMALY":"301.8807","MEAN_ELEMENT_THEORY":"SGP4","PERIAPSIS":"443.532","LAUNCH_DATE":"2021-12-02","TIME_SYSTEM":"UTC","MEAN_MOTION":"15.40463337","COUNTRY_CODE":"US","INCLINATION":"53.2140","TLE_LINE1":"1 49766U 21115AU  21351.87774223 -.00002454  00000-0 -49864-4 0  9996","EPOCH":"2021-12-17T21:03:56.928672","APOAPSIS":"445.954","DECAY_DATE":null,"ELEMENT_SET_NO":"999","SITE":"AFETR","ECCENTRICITY":"0.00017750","REF_FRAME":"TEME","PERIOD":"93.478","BSTAR":"-0.00004986400000","EPHEMERIS_TYPE":"0","MEAN_MOTION_DDOT":"0.0000000000000","MEAN_MOTION_DOT":"-0.00002454"},{"MEAN_MOTION":"15.40452970","TIME_SYSTEM":"UTC","LAUNCH_DATE":"2021-12-02","APOAPSIS":"445.787","EPOCH":"2021-12-17T21:03:24.714432","TLE_LINE1":"1 49767U 21115AV  21351.87736938  .00010778  00000-0  27158-3 0  9995","INCLINATION":"53.2141","COUNTRY_CODE":"US","REF_FRAME":"TEME","ECCENTRICITY":"0.00014860","SITE":"AFETR","DECAY_DATE":null,"ELEMENT_SET_NO":"999","MEAN_MOTION_DOT":"0.00010778","MEAN_MOTION_DDOT":"0.0000000000000","BSTAR":"0.00027158000000","EPHEMERIS_TYPE":"0","PERIOD":"93.479","RA_OF_ASC_NODE":"246.9603","CLASSIFICATION_TYPE":"U","RCS_SIZE":"MEDIUM","ARG_OF_PERICENTER":"54.4187","OBJECT_ID":"2021-115AV","TLE_LINE2":"2 49767  53.2141 246.9603 0001486  54.4187 305.6958 15.40452970  2453","SEMIMAJOR_AXIS":"6822.908","FILE":"3243045","OBJECT_NAME":"STARLINK-3192","GP_ID":"191905112","OBJECT_TYPE":"PAYLOAD","MEAN_ANOMALY":"305.6958","NORAD_CAT_ID":"49767","REV_AT_EPOCH":"245","CENTER_NAME":"EARTH","PERIAPSIS":"443.760","MEAN_ELEMENT_THEORY":"SGP4"},{"INCLINATION":"53.2135","TLE_LINE1":"1 49768U 21115AW  21351.87812363 -.00001732  00000-0 -32320-4 0  9993","EPOCH":"2021-12-17T21:04:29.881632","COUNTRY_CODE":"US","APOAPSIS":"446.010","TIME_SYSTEM":"UTC","LAUNCH_DATE":"2021-12-02","MEAN_MOTION":"15.40448879","BSTAR":"-0.00003232000000","EPHEMERIS_TYPE":"0","PERIOD":"93.479","MEAN_MOTION_DDOT":"0.0000000000000","MEAN_MOTION_DOT":"-0.00001732","SITE":"AFETR","ELEMENT_SET_NO":"999","DECAY_DATE":null,"REF_FRAME":"TEME","ECCENTRICITY":"0.00017950","GP_ID":"191905314","OBJECT_TYPE":"PAYLOAD","TLE_LINE2":"2 49768  53.2135 246.9639 0001795  35.6200 324.4925 15.40448879  2452","FILE":"3243045","SEMIMAJOR_AXIS":"6822.921","OBJECT_NAME":"STARLINK-3196","CLASSIFICATION_TYPE":"U","OBJECT_ID":"2021-115AW","RCS_SIZE":"MEDIUM","ARG_OF_PERICENTER":"35.6200","RA_OF_ASC_NODE":"246.9639","PERIAPSIS":"443.561","MEAN_ELEMENT_THEORY":"SGP4","REV_AT_EPOCH":"245","NORAD_CAT_ID":"49768","CENTER_NAME":"EARTH","MEAN_ANOMALY":"324.4925"},{"APOAPSIS":"446.021","INCLINATION":"53.2141","TLE_LINE1":"1 49769U 21115AX  21351.87793562 -.00003804  00000-0 -82747-4 0  9993","EPOCH":"2021-12-17T21:04:13.637568","COUNTRY_CODE":"US","MEAN_MOTION":"15.40454888","TIME_SYSTEM":"UTC","LAUNCH_DATE":"2021-12-02","MEAN_MOTION_DDOT":"0.0000000000000","MEAN_MOTION_DOT":"-0.00003804","BSTAR":"-0.00008274700000","EPHEMERIS_TYPE":"0","PERIOD":"93.479","REF_FRAME":"TEME","ECCENTRICITY":"0.00018370","SITE":"AFETR","ELEMENT_SET_NO":"999","DECAY_DATE":null,"TLE_LINE2":"2 49769  53.2141 246.9643 0001837  58.2923 301.8262 15.40454888  2455","FILE":"3243045","SEMIMAJOR_AXIS":"6822.903","OBJECT_NAME":"STARLINK-3208","GP_ID":"191904303","OBJECT_TYPE":"PAYLOAD","RA_OF_ASC_NODE":"246.9643","CLASSIFICATION_TYPE":"U","OBJECT_ID":"2021-115AX","ARG_OF_PERICENTER":"58.2923","RCS_SIZE":"MEDIUM","PERIAPSIS":"443.514","MEAN_ELEMENT_THEORY":"SGP4","MEAN_ANOMALY":"301.8262","REV_AT_EPOCH":"245","NORAD_CAT_ID":"49769","CENTER_NAME":"EARTH"}];
